NORAD_CAT_ID,OBJECT_NAME,OBJECT_TYPE,EPOCH,MEAN_MOTION,ECCENTRICITY,INCLINATION,RA_OF_ASC_NODE,ARG_OF_PERICENTER,MEAN_ANOMALY,BSTAR,MEAN_MOTION_DOT,MEAN_MOTION_DDOT,TLE_LINE0,TLE_LINE1,TLE_LINE2,SEMIMAJOR_AXIS,PERIOD,APOGEE,PERIGEE,DECAYED
54053.0,STARLINK-5176,PAYLOAD,2023-05-03 21:02:22,15.08838716,0.0001041,53.2168,336.7182,99.7408,260.3702,2.3403e-05,8.5e-07,0.0,0 STARLINK-5176,1 54053U 22136C   23123.87664602  .00000085  00000-0  23403-4 0  9990,2 54053  53.2168 336.7182 0001041  99.7408 260.3702 15.08838716 29713,6917.884,95.438,540.469,539.029,0.0
54053.0,STARLINK-5176,PAYLOAD,2023-05-04 00:13:08,15.08838941,0.0001035,53.2169,336.1234,100.1587,259.9522,5.5027e-05,5.88e-06,0.0,0 STARLINK-5176,1 54053U 22136C   23124.00912687  .00000588  00000-0  55027-4 0  9990,2 54053  53.2169 336.1234 0001035 100.1587 259.9522 15.08838941 30215,6917.884,95.438,540.465,539.033,0.0
54053.0,STARLINK-5176,PAYLOAD,2023-05-04 12:56:13,15.08838801,0.0001047,53.2168,333.7481,80.7782,279.3329,4.2153e-05,3.83e-06,0.0,0 STARLINK-5176,1 54053U 22136C   23124.53904828  .00000383  00000-0  42153-4 0  9995,2 54053  53.2168 333.7481 0001047  80.7782 279.3329 15.08838801 29814,6917.884,95.438,540.473,539.025,0.0
54053.0,STARLINK-5176,PAYLOAD,2023-05-04 20:53:09,15.08841224,0.0001042,53.2162,332.2601,98.6395,261.4715,-3.2659e-06,-3.4e-06,0.0,0 STARLINK-5176,1 54053U 22136C   23124.87024669 -.00000340  00000-0 -32659-5 0  9994,2 54053  53.2162 332.2601 0001042  98.6395 261.4715 15.08841224 29868,6917.877,95.437,540.462,539.021,0.0
54053.0,STARLINK-5176,PAYLOAD,2023-05-05 14:22:22,15.08870257,8.19e-05,53.2158,328.9883,88.8858,271.2228,-0.00097779,-0.00015828,0.0,0 STARLINK-5176,1 54053U 22136C   23125.59887123 -.00015828  00000-0 -97779-3 0  9995,2 54053  53.2158 328.9883 0000819  88.8858 271.2228 15.08870257 30456,6917.788,95.436,540.219,539.086,0.0
54053.0,STARLINK-5176,PAYLOAD,2023-05-05 20:43:56,15.08837231,0.0001054,53.216,327.7989,93.0806,267.0307,0.00013679,1.89e-05,0.0,0 STARLINK-5176,1 54053U 22136C   23125.86385174  .00001890  00000-0  13679-3 0  9993,2 54053  53.2160 327.7989 0001054  93.0806 267.0307 15.08837231 30014,6917.889,95.438,540.483,539.025,0.0
54053.0,STARLINK-5176,PAYLOAD,2023-05-05 23:54:42,15.08841681,0.0001088,53.2161,327.2038,87.3244,272.7873,0.00014591,2.035e-05,0.0,0 STARLINK-5176,1 54053U 22136C   23125.99632974  .00002035  00000-0  14591-3 0  9996,2 54053  53.2161 327.2038 0001088  87.3244 272.7873 15.08841681 30514,6917.875,95.437,540.493,538.988,0.0
54053.0,STARLINK-5176,PAYLOAD,2023-05-06 06:16:15,15.08837715,0.0001027,53.2162,326.0133,82.467,277.6439,8.0476e-05,9.93e-06,0.0,0 STARLINK-5176,1 54053U 22136C   23126.26129253  .00000993  00000-0  80476-4 0  9995,2 54053  53.2162 326.0133 0001027  82.4670 277.6439 15.08837715 30076,6917.887,95.438,540.463,539.042,0.0
54053.0,STARLINK-5176,PAYLOAD,2023-05-07 06:07:02,15.08846082,0.0001003,53.2166,321.5535,92.7568,267.3539,0.00012521,1.706e-05,0.0,0 STARLINK-5176,1 54053U 22136C   23127.25488774  .00001706  00000-0  12521-3 0  9999,2 54053  53.2166 321.5535 0001003  92.7568 267.3539 15.08846082 30704,6917.862,95.437,540.421,539.033,0.0
54053.0,STARLINK-5176,PAYLOAD,2023-05-07 20:25:30,15.08842428,0.0001041,53.2165,318.8788,92.0465,268.0647,7.1228e-05,8.46e-06,0.0,0 STARLINK-5176,1 54053U 22136C   23127.85105045  .00000846  00000-0  71228-4 0  9996,2 54053  53.2165 318.8788 0001041  92.0465 268.0647 15.08842428 30790,6917.873,95.437,540.458,539.018,0.0
54053.0,STARLINK-5176,PAYLOAD,2023-05-08 18:40:54,15.08852162,9.34e-05,53.2167,314.7139,97.2158,262.894,2.6427e-05,1.33e-06,0.0,0 STARLINK-5176,1 54053U 22136C   23128.77840525  .00000133  00000-0  26427-4 0  9997,2 54053  53.2167 314.7139 0000934  97.2158 262.8940 15.08852162 30450,6917.843,95.437,540.354,539.062,0.0
54053.0,STARLINK-5176,PAYLOAD,2023-05-09 05:48:36,15.08846767,8.57e-05,53.2168,312.6316,101.2817,258.8271,-1.7217e-05,-5.62e-06,0.0,0 STARLINK-5176,1 54053U 22136C   23129.24208695 -.00000562  00000-0 -17217-4 0  9991,2 54053  53.2168 312.6316 0000857 101.2817 258.8271 15.08846767 30521,6917.86,95.437,540.318,539.132,0.0
54053.0,STARLINK-5176,PAYLOAD,2023-05-09 18:31:41,15.08826383,7.88e-05,53.2165,310.2523,106.4195,253.6884,0.00024993,3.691e-05,0.0,0 STARLINK-5176,1 54053U 22136C   23129.77201240  .00003691  00000-0  24993-3 0  9990,2 54053  53.2165 310.2523 0000788 106.4195 253.6884 15.08826383 30605,6917.922,95.438,540.332,539.242,0.0
54053.0,STARLINK-5176,PAYLOAD,2023-05-10 18:22:28,15.08848885,9.07e-05,53.2167,305.7925,85.5377,274.5718,0.00012593,1.717e-05,0.0,0 STARLINK-5176,1 54053U 22136C   23130.76560491  .00001717  00000-0  12593-3 0  9997,2 54053  53.2167 305.7925 0000907  85.5377 274.5718 15.08848885 31233,6917.853,95.437,540.346,539.091,0.0
54053.0,STARLINK-5176,PAYLOAD,2023-05-11 18:13:16,15.0883481,9.69e-05,53.2165,301.3312,79.4298,280.6804,6.554e-05,7.55e-06,0.0,0 STARLINK-5176,1 54053U 22136C   23131.75921488  .00000755  00000-0  65540-4 0  9996,2 54053  53.2165 301.3312 0000969  79.4298 280.6804 15.08834810 31388,6917.896,95.438,540.432,539.091,0.0
54053.0,STARLINK-5176,PAYLOAD,2023-05-12 03:45:35,15.088363,9.77e-05,53.2163,299.5479,74.3948,285.7152,2.9969e-05,1.89e-06,0.0,0 STARLINK-5176,1 54053U 22136C   23132.15665758  .00000189  00000-0  29969-4 0  9992,2 54053  53.2163 299.5479 0000977  74.3948 285.7152 15.08836300 30964,6917.892,95.438,540.433,539.081,0.0
54053.0,STARLINK-5176,PAYLOAD,2023-05-12 18:04:05,15.08743787,0.0001494,53.2169,296.8741,90.517,269.5994,0.0013894,0.00021835,0.0,0 STARLINK-5176,1 54053U 22136C   23132.75283771  .00021835  00000-0  13894-2 0  9998,2 54053  53.2169 296.8741 0001494  90.5170 269.5994 15.08743787 31538,6918.174,95.444,541.073,539.006,0.0
54053.0,STARLINK-5176,PAYLOAD,2023-05-13 03:36:21,15.08845092,0.0001004,53.2177,295.09,85.4348,274.6759,2.3947e-05,9.3e-07,0.0,0 STARLINK-5176,1 54053U 22136C   23133.15025268  .00000093  00000-0  23947-4 0  9993,2 54053  53.2177 295.0900 0001004  85.4348 274.6759 15.08845092 31596,6917.865,95.437,540.424,539.035,0.0
54053.0,STARLINK-5176,PAYLOAD,2023-05-13 14:44:04,15.08840534,0.0001127,53.2183,293.0088,90.0564,270.0557,1.8682e-05,1e-07,0.0,0 STARLINK-5176,1 54053U 22136C   23133.61393906  .00000010  00000-0  18682-4 0  9990,2 54053  53.2183 293.0088 0001127  90.0564 270.0557 15.08840534 31666,6917.879,95.438,540.523,538.964,0.0
54053.0,STARLINK-5176,PAYLOAD,2023-05-13 17:54:50,15.08838612,0.0001209,53.2183,292.415,100.6353,259.4775,0.00010585,1.397e-05,0.0,0 STARLINK-5176,1 54053U 22136C   23133.74641770  .00001397  00000-0  10585-3 0  9991,2 54053  53.2183 292.4150 0001209 100.6353 259.4775 15.08838612 31201,6917.885,95.438,540.586,538.913,0.0
54053.0,STARLINK-5176,PAYLOAD,2023-05-14 03:27:09,15.08836155,9.71e-05,53.2175,290.6301,88.8541,271.2562,8.4956e-05,1.064e-05,0.0,0 STARLINK-5176,1 54053U 22136C   23134.14386054  .00001064  00000-0  84956-4 0  9992,2 54053  53.2175 290.6301 0000971  88.8541 271.2562 15.08836155 31263,6917.892,95.438,540.429,539.085,0.0
54053.0,STARLINK-5176,PAYLOAD,2023-05-14 19:21:01,15.08839436,0.0001084,53.217,287.6543,85.8202,274.2914,1.6471e-05,-2.6e-07,0.0,0 STARLINK-5176,1 54053U 22136C   23134.80626247 -.00000026  00000-0  16471-4 0  9991,2 54053  53.2170 287.6543 0001084  85.8202 274.2914 15.08839436 31369,6917.882,95.438,540.497,538.997,0.0
54053.0,STARLINK-5176,PAYLOAD,2023-05-15 03:17:57,15.08830444,0.0001188,53.2178,286.1689,93.4405,266.6723,0.00015212,2.133e-05,0.0,0 STARLINK-5176,1 54053U 22136C   23135.13746613  .00002133  00000-0  15212-3 0  9999,2 54053  53.2178 286.1689 0001188  93.4405 266.6723 15.08830444 31416,6917.91,95.438,540.596,538.953,0.0
54053.0,STARLINK-5176,PAYLOAD,2023-05-15 16:01:01,15.08836525,8.13e-05,53.2163,283.7872,76.9937,283.1146,8.2174e-05,1.02e-05,0.0,0 STARLINK-5176,1 54053U 22136C   23135.66738268  .00001020  00000-0  82174-4 0  9990,2 54053  53.2163 283.7872 0000813  76.9937 283.1146 15.08836525 31494,6917.891,95.438,540.318,539.194,0.0
54053.0,STARLINK-5176,PAYLOAD,2023-05-16 19:02:35,15.0884192,9.44e-05,53.2161,278.733,93.2163,266.8937,4.9345e-05,4.98e-06,0.0,0 STARLINK-5176,1 54053U 22136C   23136.79346116  .00000498  00000-0  49345-4 0  9993,2 54053  53.2161 278.7330 0000944  93.2163 266.8937 15.08841920 32147,6917.875,95.437,540.393,539.086,0.0
54053.0,STARLINK-5176,PAYLOAD,2023-05-17 15:42:35,15.08842253,0.0001193,53.217,274.8675,93.8461,266.2667,4.4817e-05,4.26e-06,0.0,0 STARLINK-5176,1 54053U 22136C   23137.65458144  .00000426  00000-0  44817-4 0  9994,2 54053  53.2170 274.8675 0001193  93.8461 266.2667 15.08842253 31794,6917.874,95.437,540.564,538.913,0.0
54053.0,STARLINK-5176,PAYLOAD,2023-05-18 12:22:36,15.08836681,0.0001221,53.2168,271.0026,87.2722,272.8409,4.385e-05,4.1e-06,0.0,0 STARLINK-5176,1 54053U 22136C   23138.51570442  .00000410  00000-0  43850-4 0  9995,2 54053  53.2168 271.0026 0001221  87.2722 272.8409 15.08836681 32403,6917.891,95.438,540.6,538.911,0.0
54053.0,STARLINK-5176,PAYLOAD,2023-05-18 20:19:32,15.0883989,0.0001276,53.2164,269.5151,88.8941,271.2198,0.00010071,1.315e-05,0.0,0 STARLINK-5176,1 54053U 22136C   23138.84690056  .00001315  00000-0  10071-3 0  9998,2 54053  53.2164 269.5151 0001276  88.8941 271.2198 15.08839890 31974,6917.881,95.438,540.628,538.863,0.0
54053.0,STARLINK-5176,PAYLOAD,2023-05-19 12:13:23,15.08840147,0.0001555,53.2169,266.5363,113.6503,246.4652,-7.2811e-06,-4.04e-06,0.0,0 STARLINK-5176,1 54053U 22136C   23139.50930361 -.00000404  00000-0 -72811-5 0  9990,2 54053  53.2169 266.5363 0001555 113.6503 246.4652 15.08840147 32070,6917.88,95.438,540.821,538.669,0.0
54053.0,STARLINK-5176,PAYLOAD,2023-05-20 00:56:28,15.08842198,0.0001119,53.2169,264.162,89.6784,270.4336,3.2586e-05,2.31e-06,0.0,0 STARLINK-5176,1 54053U 22136C   23140.03922127  .00000231  00000-0  32586-4 0  9991,2 54053  53.2169 264.1620 0001119  89.6784 270.4336 15.08842198 32635,6917.874,95.437,540.513,538.965,0.0
